[
    {
        "Altitude(m)": 704227.0719325622,
        "Argument of Periapsis(deg)": 0.006834072711976239,
        "Eccentricity": 0.0,
        "Inclination(deg)": 45.0,
        "Latitude(deg)": -4.98057625496124,
        "Longitude(deg)": 4.520542886153915,
        "Mean Anomaly(deg)": -173.08007001151145,
        "RAAN(deg)": 279.99354883512507,
        "Satellite Name": "Constellation 1 1243",
        "Satellite Number": 1243,
        "Semi-Major Axis(m)": 7083131.272910544,
        "Time(s)": 114
    },
    {
        "Altitude(m)": 704235.0032236757,
        "Argument of Periapsis(deg)": 0.006894020718221645,
        "Eccentricity": 0.0,
        "Inclination(deg)": 45.0,
        "Latitude(deg)": -5.023615748221597,
        "Longitude(deg)": 4.559608972333864,
        "Mean Anomaly(deg)": -173.01936887126158,
        "RAAN(deg)": 279.9934922459595,
        "Satellite Name": "Constellation 1 1243",
        "Satellite Number": 1243,
        "Semi-Major Axis(m)": 7083131.272910544,
        "Time(s)": 115
    },
    {
        "Altitude(m)": 704242.953780349,
        "Argument of Periapsis(deg)": 0.006953968724467052,
        "Eccentricity": 0.0,
        "Inclination(deg)": 45.0,
        "Latitude(deg)": -5.066652248120172,
        "Longitude(deg)": 4.598680638417931,
        "Mean Anomaly(deg)": -172.95866773101176,
        "RAAN(deg)": 279.9934356567939,
        "Satellite Name": "Constellation 1 1243",
        "Satellite Number": 1243,
        "Semi-Major Axis(m)": 7083131.272910544,
        "Time(s)": 116
    },
    {
        "Altitude(m)": 704250.9235854107,
        "Argument of Periapsis(deg)": 0.007013916730712457,
        "Eccentricity": 0.0,
        "Inclination(deg)": 45.0,
        "Latitude(deg)": -5.10968572913548,
        "Longitude(deg)": 4.637757933392292,
        "Mean Anomaly(deg)": -172.89796659076177,
        "RAAN(deg)": 279.9933790676284,
        "Satellite Name": "Constellation 1 1243",
        "Satellite Number": 1243,
        "Semi-Major Axis(m)": 7083131.272910544,
        "Time(s)": 117
    },
    {
        "Altitude(m)": 704258.9126215968,
        "Argument of Periapsis(deg)": 0.007073864736957864,
        "Eccentricity": 0.0,
        "Inclination(deg)": 45.0,
        "Latitude(deg)": -5.152716165735408,
        "Longitude(deg)": 4.676840906255141,
        "Mean Anomaly(deg)": -172.83726545051192,
        "RAAN(deg)": 279.9933224784628,
        "Satellite Name": "Constellation 1 1243",
        "Satellite Number": 1243,
        "Semi-Major Axis(m)": 7083131.272910544,
        "Time(s)": 118
    },
    {
        "Altitude(m)": 704266.9208715534,
        "Argument of Periapsis(deg)": 0.0071338127432032696,
        "Eccentricity": 0.0,
        "Inclination(deg)": 45.0,
        "Latitude(deg)": -5.195743532377814,
        "Longitude(deg)": 4.715929437919882,
        "Mean Anomaly(deg)": -172.776564310262,
        "RAAN(deg)": 279.9932658892972,
        "Satellite Name": "Constellation 1 1243",
        "Satellite Number": 1243,
        "Semi-Major Axis(m)": 7083131.272910544,
        "Time(s)": 119
    },
    {
        "Altitude(m)": 704274.9483178385,
        "Argument of Periapsis(deg)": 0.007193760749448674,
        "Eccentricity": 0.0,
        "Inclination(deg)": 45.0,
        "Latitude(deg)": -5.238767803508912,
        "Longitude(deg)": 4.755023913603191,
        "Mean Anomaly(deg)": -172.7158631700121,
        "RAAN(deg)": 279.99320930013164,
        "Satellite Name": "Constellation 1 1243",
        "Satellite Number": 1243,
        "Semi-Major Axis(m)": 7083131.272910544,
        "Time(s)": 120
    },
    {
        "Altitude(m)": 704282.9949429173,
        "Argument of Periapsis(deg)": 0.007253708755694079,
        "Eccentricity": 0.0,
        "Inclination(deg)": 45.0,
        "Latitude(deg)": -5.281788953565161,
        "Longitude(deg)": 4.794124214243298,
        "Mean Anomaly(deg)": -172.65516202976224,
        "RAAN(deg)": 279.99315271096606,
        "Satellite Name": "Constellation 1 1243",
        "Satellite Number": 1243,
        "Semi-Major Axis(m)": 7083131.272910544,
        "Time(s)": 121
    },
    {
        "Altitude(m)": 704291.0607291725,
        "Argument of Periapsis(deg)": 0.0073136567619394854,
        "Eccentricity": 0.0,
        "Inclination(deg)": 45.0,
        "Latitude(deg)": -5.324806956971956,
        "Longitude(deg)": 4.8332303888878245,
        "Mean Anomaly(deg)": -172.5944608895124,
        "RAAN(deg)": 279.99309612180053,
        "Satellite Name": "Constellation 1 1243",
        "Satellite Number": 1243,
        "Semi-Major Axis(m)": 7083131.272910544,
        "Time(s)": 122
    },
    {
        "Altitude(m)": 704299.1456588898,
        "Argument of Periapsis(deg)": 0.0073736047681848904,
        "Eccentricity": 0.0,
        "Inclination(deg)": 45.0,
        "Latitude(deg)": -5.367821788143819,
        "Longitude(deg)": 4.872342486597072,
        "Mean Anomaly(deg)": -172.53375974926246,
        "RAAN(deg)": 279.99303953263495,
        "Satellite Name": "Constellation 1 1243",
        "Satellite Number": 1243,
        "Semi-Major Axis(m)": 7083131.272910544,
        "Time(s)": 123
    },
    {
        "Altitude(m)": 704307.249714267,
        "Argument of Periapsis(deg)": 0.007433552774430298,
        "Eccentricity": 0.0,
        "Inclination(deg)": 45.0,
        "Latitude(deg)": -5.4108334214841385,
        "Longitude(deg)": 4.911460556443814,
        "Mean Anomaly(deg)": -172.47305860901247,
        "RAAN(deg)": 279.99298294346937,
        "Satellite Name": "Constellation 1 1243",
        "Satellite Number": 1243,
        "Semi-Major Axis(m)": 7083131.272910544,
        "Time(s)": 124
    },
    {
        "Altitude(m)": 704315.3728774219,
        "Argument of Periapsis(deg)": 0.007493500780675703,
        "Eccentricity": 0.0,
        "Inclination(deg)": 45.0,
        "Latitude(deg)": -5.453841831385273,
        "Longitude(deg)": 4.9505846475137965,
        "Mean Anomaly(deg)": -172.41235746876262,
        "RAAN(deg)": 279.9929263543038,
        "Satellite Name": "Constellation 1 1243",
        "Satellite Number": 1243,
        "Semi-Major Axis(m)": 7083131.272910544,
        "Time(s)": 125
    },
    {
        "Altitude(m)": 704323.5151303677,
        "Argument of Periapsis(deg)": 0.007553448786921108,
        "Eccentricity": 0.0,
        "Inclination(deg)": 45.0,
        "Latitude(deg)": -5.496846992228738,
        "Longitude(deg)": 4.9897146408085264,
        "Mean Anomaly(deg)": -172.35165632851272,
        "RAAN(deg)": 279.9928697651382,
        "Satellite Name": "Constellation 1 1243",
        "Satellite Number": 1243,
        "Semi-Major Axis(m)": 7083131.272910544,
        "Time(s)": 126
    },
    {
        "Altitude(m)": 704331.6764550424,
        "Argument of Periapsis(deg)": 0.007613396793166514,
        "Eccentricity": 0.0,
        "Inclination(deg)": 45.0,
        "Latitude(deg)": -5.53984887838399,
        "Longitude(deg)": 5.028850921633996,
        "Mean Anomaly(deg)": -172.29095518826279,
        "RAAN(deg)": 279.9928131759727,
        "Satellite Name": "Constellation 1 1243",
        "Satellite Number": 1243,
        "Semi-Major Axis(m)": 7083131.272910544,
        "Time(s)": 127
    },
    {
        "Altitude(m)": 704339.8568332866,
        "Argument of Periapsis(deg)": 0.007673344799411918,
        "Eccentricity": 0.0,
        "Inclination(deg)": 45.0,
        "Latitude(deg)": -5.5828474642097765,
        "Longitude(deg)": 5.067993371017656,
        "Mean Anomaly(deg)": -172.2302540480129,
        "RAAN(deg)": 279.9927565868071,
        "Satellite Name": "Constellation 1 1243",
        "Satellite Number": 1243,
        "Semi-Major Axis(m)": 7083131.272910544,
        "Time(s)": 128
    },
    {
        "Altitude(m)": 704348.0562468618,
        "Argument of Periapsis(deg)": 0.007733292805657325,
        "Eccentricity": 0.0,
        "Inclination(deg)": 45.0,
        "Latitude(deg)": -5.6258427240532045,
        "Longitude(deg)": 5.10714203809751,
        "Mean Anomaly(deg)": -172.16955290776306,
        "RAAN(deg)": 279.9926999976415,
        "Satellite Name": "Constellation 1 1243",
        "Satellite Number": 1243,
        "Semi-Major Axis(m)": 7083131.272910544,
        "Time(s)": 129
    },
    {
        "Altitude(m)": 704356.2746774169,
        "Argument of Periapsis(deg)": 0.00779324081190273,
        "Eccentricity": 0.0,
        "Inclination(deg)": 45.0,
        "Latitude(deg)": -5.668834632249975,
        "Longitude(deg)": 5.146296972024935,
        "Mean Anomaly(deg)": -172.10885176751313,
        "RAAN(deg)": 279.99264340847594,
        "Satellite Name": "Constellation 1 1243",
        "Satellite Number": 1243,
        "Semi-Major Axis(m)": 7083131.272910544,
        "Time(s)": 130
    },
    {
        "Altitude(m)": 704364.5121065446,
        "Argument of Periapsis(deg)": 0.007853188818148135,
        "Eccentricity": 0.0,
        "Inclination(deg)": 45.0,
        "Latitude(deg)": -5.7118231631239365,
        "Longitude(deg)": 5.185458221964383,
        "Mean Anomaly(deg)": -172.04815062726325,
        "RAAN(deg)": 279.99258681931036,
        "Satellite Name": "Constellation 1 1243",
        "Satellite Number": 1243,
        "Semi-Major Axis(m)": 7083131.272910544,
        "Time(s)": 131
    },
    {
        "Altitude(m)": 704372.7685157277,
        "Argument of Periapsis(deg)": 0.007913136824393542,
        "Eccentricity": 0.0,
        "Inclination(deg)": 45.0,
        "Latitude(deg)": -5.754808290987233,
        "Longitude(deg)": 5.224625837094093,
        "Mean Anomaly(deg)": -171.98744948701335,
        "RAAN(deg)": 279.99253023014484,
        "Satellite Name": "Constellation 1 1243",
        "Satellite Number": 1243,
        "Semi-Major Axis(m)": 7083131.272910544,
        "Time(s)": 132
    }
]